{"type": "FeatureCollection", "features": [ {"type": "Feature", "properties": {"norad_id": 58662, "name": "TIANMU-1 21", "group": "weather", "lat": -27.54578083660418, "lon": 113.99190629192383, "alt_km": 478.1638816329887, "timestamp": "2025-12-22T15:43:48.625902+00:00", "meta": {"OBJECT_NAME": "TIANMU-1 21", "OBJECT_ID": "2023-208C", "EPOCH": "2025-12-22T06:26:39.397920", "MEAN_MOTION": 15.31742811, "ECCENTRICITY": 0.00063019, "INCLINATION": 97.4382, "RA_OF_ASC_NODE": 109.6962, "ARG_OF_PERICENTER": 220.439, "MEAN_ANOMALY": 139.6384, "EPHEMERIS_TYPE": 0, "CLASSIFICATION_TYPE": "U", "NORAD_CAT_ID": 58662, "ELEMENT_SET_NO": 999, "REV_AT_EPOCH": 11045, "BSTAR": 0.00041055657, "MEAN_MOTION_DOT": 0.00012519, "MEAN_MOTION_DDOT": 0}, "tle": {"line1": "1 58662U 23208C   25356.26851155  .00012519  00000+0  41056-3 0  9992", "line2": "2 58662  97.4382 109.6962 0006301 220.4390 139.6384 15.31742811110453"}}, "geometry": {"type": "Point", "coordinates": [113.99190629192383, -27.54578083660418]}}, {"type": "Feature", "properties": {"norad_id": 58663, "name": "TIANMU-1 22", "group": "weather", "lat": 65.8099780190286, "lon": -55.36188632028238, "alt_km": 477.1543720986356, "timestamp": "2025-12-22T15:43:48.625913+00:00", "meta": {"OBJECT_NAME": "TIANMU-1 22", "OBJECT_ID": "2023-208D", "EPOCH": "2025-12-22T07:22:37.945632", "MEAN_MOTION": 15.27756684, "ECCENTRICITY": 0.0002837, "INCLINATION": 97.4388, "RA_OF_ASC_NODE": 107.3813, "ARG_OF_PERICENTER": 236.7083, "MEAN_ANOMALY": 123.3885, "EPHEMERIS_TYPE": 0, "CLASSIFICATION_TYPE": "U", "NORAD_CAT_ID": 58663, "ELEMENT_SET_NO": 999, "REV_AT_EPOCH": 11029, "BSTAR": 0.00034538415, "MEAN_MOTION_DOT": 9.294e-05, "MEAN_MOTION_DDOT": 0}, "tle": {"line1": "1 58663U 23208D   25356.30738363  .00009294  00000+0  34538-3 0  9996", "line2": "2 58663  97.4388 107.3813 0002837 236.7083 123.3885 15.27756684110295"}}, "geometry": {"type": "Point", "coordinates": [-55.36188632028238, 65.8099780190286]}}, {"type": "Feature", "properties": {"norad_id": 58700, "name": "TIANMU-1 15", "group": "weather", "lat": 51.186841748917516, "lon": 7.465401657147642, "alt_km": 489.58182186474914, "timestamp": "2025-12-22T15:43:48.625923+00:00", "meta": {"OBJECT_NAME": "TIANMU-1 15", "OBJECT_ID": "2024-004A", "EPOCH": "2025-12-22T07:17:35.447136", "MEAN_MOTION": 15.24525942, "ECCENTRICITY": 0.00059953, "INCLINATION": 97.4622, "RA_OF_ASC_NODE": 177.7374, "ARG_OF_PERICENTER": 249.4702, "MEAN_ANOMALY": 110.5892, "EPHEMERIS_TYPE": 0, "CLASSIFICATION_TYPE": "U", "NORAD_CAT_ID": 58700, "ELEMENT_SET_NO": 999, "REV_AT_EPOCH": 10880, "BSTAR": 0.00029460563, "MEAN_MOTION_DOT": 7.18e-05, "MEAN_MOTION_DDOT": 0}, "tle": {"line1": "1 58700U 24004A   25356.30388249  .00007180  00000+0  29461-3 0  9998", "line2": "2 58700  97.4622 177.7374 0005995 249.4702 110.5892 15.24525942108806"}}, "geometry": {"type": "Point", "coordinates": [7.465401657147642, 51.186841748917516]}}, {"type": "Feature", "properties": {"norad_id": 58701, "name": "TIANMU-1 16", "group": "weather", "lat": -30.452228913425344, "lon": -6.947751693093868, "alt_km": 495.90880309687236, "timestamp": "2025-12-22T15:43:48.625934+00:00", "meta": {"OBJECT_NAME": "TIANMU-1 16", "OBJECT_ID": "2024-004B", "EPOCH": "2025-12-22T06:55:57.120384", "MEAN_MOTION": 15.24552705, "ECCENTRICITY": 0.00043511, "INCLINATION": 97.4562, "RA_OF_ASC_NODE": 177.1035, "ARG_OF_PERICENTER": 252.5302, "MEAN_ANOMALY": 107.546, "EPHEMERIS_TYPE": 0, "CLASSIFICATION_TYPE": "U", "NORAD_CAT_ID": 58701, "ELEMENT_SET_NO": 999, "REV_AT_EPOCH": 10880, "BSTAR": 0.00028270672, "MEAN_MOTION_DOT": 6.891e-05, "MEAN_MOTION_DDOT": 0}, "tle": {"line1": "1 58701U 24004B   25356.28885556  .00006891  00000+0  28271-3 0  9995", "line2": "2 58701  97.4562 177.1035 0004351 252.5302 107.5460 15.24552705108808"}}, "geometry": {"type": "Point", "coordinates": [-6.947751693093868, -30.452228913425344]}}, {"type": "Feature", "properties": {"norad_id": 58702, "name": "TIANMU-1 17", "group": "weather", "lat": -62.36389725191486, "lon": -167.62416363173895, "alt_km": 497.45701453271795, "timestamp": "2025-12-22T15:43:48.625944+00:00", "meta": {"OBJECT_NAME": "TIANMU-1 17", "OBJECT_ID": "2024-004C", "EPOCH": "2025-12-22T06:33:22.586976", "MEAN_MOTION": 15.24596043, "ECCENTRICITY": 0.00035161, "INCLINATION": 97.4597, "RA_OF_ASC_NODE": 177.5029, "ARG_OF_PERICENTER": 254.0916, "MEAN_ANOMALY": 105.9935, "EPHEMERIS_TYPE": 0, "CLASSIFICATION_TYPE": "U", "NORAD_CAT_ID": 58702, "ELEMENT_SET_NO": 999, "REV_AT_EPOCH": 10879, "BSTAR": 0.00029580619, "MEAN_MOTION_DOT": 7.223e-05, "MEAN_MOTION_DDOT": 0}, "tle": {"line1": "1 58702U 24004C   25356.27317809  .00007223  00000+0  29581-3 0  9991", "line2": "2 58702  97.4597 177.5029 0003516 254.0916 105.9935 15.24596043108794"}}, "geometry": {"type": "Point", "coordinates": [-167.62416363173895, -62.36389725191486]}}, {"type": "Feature", "properties": {"norad_id": 58703, "name": "TIANMU-1 18", "group": "weather", "lat": 27.38648393100056, "lon": 174.18778906525029, "alt_km": 492.4775428541816, "timestamp": "2025-12-22T15:43:48.625958+00:00", "meta": {"OBJECT_NAME": "TIANMU-1 18", "OBJECT_ID": "2024-004D", "EPOCH": "2025-12-22T06:09:28.849824", "MEAN_MOTION": 15.24579836, "ECCENTRICITY": 0.0002884, "INCLINATION": 97.4614, "RA_OF_ASC_NODE": 177.6837, "ARG_OF_PERICENTER": 251.2522, "MEAN_ANOMALY": 108.8403, "EPHEMERIS_TYPE": 0, "CLASSIFICATION_TYPE": "U", "NORAD_CAT_ID": 58703, "ELEMENT_SET_NO": 999, "REV_AT_EPOCH": 10879, "BSTAR": 0.00028963768, "MEAN_MOTION_DOT": 7.067e-05, "MEAN_MOTION_DDOT": 0}, "tle": {"line1": "1 58703U 24004D   25356.25658391  .00007067  00000+0  28964-3 0  9994", "line2": "2 58703  97.4614 177.6837 0002884 251.2522 108.8403 15.24579836108795"}}, "geometry": {"type": "Point", "coordinates": [174.18778906525029, 27.38648393100056]}}, {"type": "Feature", "properties": {"norad_id": 58990, "name": "INSAT-3DS", "group": "weather", "lat": -0.023342969694286956, "lon": 49.51969046401603, "alt_km": 35789.50554120397, "timestamp": "2025-12-22T15:43:48.625971+00:00", "meta": {"OBJECT_NAME": "INSAT-3DS", "OBJECT_ID": "2024-033A", "EPOCH": "2025-12-22T03:17:04.894080", "MEAN_MOTION": 1.002719, "ECCENTRICITY": 0.00011283, "INCLINATION": 0.0552, "RA_OF_ASC_NODE": 101.4195, "ARG_OF_PERICENTER": 172.2443, "MEAN_ANOMALY": 308.6604, "EPHEMERIS_TYPE": 0, "CLASSIFICATION_TYPE": "U", "NORAD_CAT_ID": 58990, "ELEMENT_SET_NO": 999, "REV_AT_EPOCH": 4529, "BSTAR": 0, "MEAN_MOTION_DOT": -1.34e-06, "MEAN_MOTION_DDOT": 0}, "tle": {"line1": "1 58990U 24033A   25356.13686220 -.00000134  00000+0  00000+0 0  9999", "line2": "2 58990   0.0552 101.4195 0001128 172.2443 308.6604  1.00271900 45298"}}, "geometry": {"type": "Point", "coordinates": [49.51969046401603, -0.023342969694286956]}}, {"type": "Feature", "properties": {"norad_id": 59051, "name": "METEOR-M2 4", "group": "weather", "lat": 16.60867865279291, "lon": 136.0203686926031, "alt_km": 822.3357653547291, "timestamp": "2025-12-22T15:43:48.626069+00:00", "meta": {"OBJECT_NAME": "METEOR-M2 4", "OBJECT_ID": "2024-039A", "EPOCH": "2025-12-22T06:31:28.107840", "MEAN_MOTION": 14.22402639, "ECCENTRICITY": 0.00065415, "INCLINATION": 98.678, "RA_OF_ASC_NODE": 313.0318, "ARG_OF_PERICENTER": 330.1423, "MEAN_ANOMALY": 29.9381, "EPHEMERIS_TYPE": 0, "CLASSIFICATION_TYPE": "U", "NORAD_CAT_ID": 59051, "ELEMENT_SET_NO": 999, "REV_AT_EPOCH": 9411, "BSTAR": 2.6780315e-05, "MEAN_MOTION_DOT": 1.6e-07, "MEAN_MOTION_DDOT": 0}, "tle": {"line1": "1 59051U 24039A   25356.27185310  .00000016  00000+0  26780-4 0  9999", "line2": "2 59051  98.6780 313.0318 0006541 330.1423  29.9381 14.22402639 94111"}}, "geometry": {"type": "Point", "coordinates": [136.0203686926031, 16.60867865279291]}}, {"type": "Feature", "properties": {"norad_id": 60133, "name": "GOES 19", "group": "weather", "lat": -0.005552198716170941, "lon": -107.79334675926046, "alt_km": 35784.901190929035, "timestamp": "2025-12-22T15:43:48.626114+00:00", "meta": {"OBJECT_NAME": "GOES 19", "OBJECT_ID": "2024-119A", "EPOCH": "2025-12-22T02:32:09.195936", "MEAN_MOTION": 1.00272373, "ECCENTRICITY": 9.441e-05, "INCLINATION": 0.0087, "RA_OF_ASC_NODE": 102.1976, "ARG_OF_PERICENTER": 224.669, "MEAN_ANOMALY": 86.9004, "EPHEMERIS_TYPE": 0, "CLASSIFICATION_TYPE": "U", "NORAD_CAT_ID": 60133, "ELEMENT_SET_NO": 999, "REV_AT_EPOCH": 518, "BSTAR": 0, "MEAN_MOTION_DOT": -2.26e-06, "MEAN_MOTION_DDOT": 0}, "tle": {"line1": "1 60133U 24119A   25356.10566199 -.00000226  00000+0  00000+0 0  9997", "line2": "2 60133   0.0087 102.1976 0000944 224.6690  86.9004  1.00272373  5188"}}, "geometry": {"type": "Point", "coordinates": [-107.79334675926046, -0.005552198716170941]}}, {"type": "Feature", "properties": {"norad_id": 65815, "name": "FENGYUN 3H", "group": "weather", "lat": -46.38247834674272, "lon": -54.76578290786701, "alt_km": 832.8902201139808, "timestamp": "2025-12-22T15:43:48.626130+00:00", "meta": {"OBJECT_NAME": "FENGYUN 3H", "OBJECT_ID": "2025-219A", "EPOCH": "2025-12-22T05:48:15.430464", "MEAN_MOTION": 14.19907036, "ECCENTRICITY": 7.68e-05, "INCLINATION": 98.6598, "RA_OF_ASC_NODE": 295.6263, "ARG_OF_PERICENTER": 106.2595, "MEAN_ANOMALY": 253.8666, "EPHEMERIS_TYPE": 0, "CLASSIFICATION_TYPE": "U", "NORAD_CAT_ID": 65815, "ELEMENT_SET_NO": 999, "REV_AT_EPOCH": 1227, "BSTAR": 5.072921e-05, "MEAN_MOTION_DOT": 6.4e-07, "MEAN_MOTION_DDOT": 0}, "tle": {"line1": "1 65815U 25219A   25356.24184526  .00000064  00000+0  50729-4 0  9993", "line2": "2 65815  98.6598 295.6263 0000768 106.2595 253.8666 14.19907036 12272"}}, "geometry": {"type": "Point", "coordinates": [-54.76578290786701, -46.38247834674272]}}]}